0 GLOBALSTAR M068
1 32266U 07048D   13282.68130920 -.00000091  00000-0  70711-4 0  9006
2 32266 051.9900 351.5219 0001320 045.2095 090.8442 12.62637455278591
0 GLOBALSTAR M068
1 32266U 07048D   13283.71391892 -.00000092  00000-0  66953-4 0  9013
2 32266 051.9900 348.3752 0001325 046.3252 105.7368 12.62637523278723
0 GLOBALSTAR M068
1 32266U 07048D   13285.76487586 -.00000097  00000-0  37782-4 0  9031
2 32266 051.9897 342.1253 0001342 048.7196 070.4969 12.62637684278989
0 GLOBALSTAR M068
1 32266U 07048D   13287.17118481 -.00000102  00000-0  10469-4 0  9044
2 32266 051.9896 337.8399 0001345 048.3456 346.3544 12.62637793279164
0 GLOBALSTAR M068
1 32266U 07048D   13288.45275823 -.00000103  00000-0  51314-5 0  9057
2 32266 051.9894 333.9346 0001365 049.5341 053.3897 12.62637872279321
0 GLOBALSTAR M068
1 32266U 07048D   13289.48990726 -.00000103  00000-0  62194-5 0  9066
2 32266 051.9892 330.7740 0001374 050.5868 088.9897 12.62637896279452
0 GLOBALSTAR M068
1 32266U 07048D   13290.52458494 -.00000101  00000-0  14979-4 0  9070
2 32266 051.9891 327.6210 0001380 052.6319 112.3592 12.62637922279587
0 GLOBALSTAR M068
1 32266U 07048D   13291.70243087 -.00000100  00000-0  23251-4 0  9084
2 32266 051.9890 324.0315 0001388 053.0359 068.4576 12.62637935279734
0 GLOBALSTAR M068
1 32266U 07048D   13293.10858704 -.00000096  00000-0  41452-4 0  9096
2 32266 051.9889 319.7461 0001400 054.7069 341.5784 12.62637949279917
0 GLOBALSTAR M068
1 32266U 07048D   13294.48251741 -.00000095  00000-0  48009-4 0  9102
2 32266 051.9889 315.5592 0001419 055.6835 108.8398 12.62637983280080
0 GLOBALSTAR M068
1 32266U 07048D   13295.51161796 -.00000099  00000-0  29620-4 0  9110
2 32266 051.9889 312.4231 0001441 055.9818 108.5927 12.62638052280213
